start=new Date('2023-03-02T00:00:00.000Z').valueOf();
sats=[{"INCLINATION":"53.0531","MEAN_MOTION_DDOT":"0.0000000000000","LAUNCH_DATE":"2021-05-04","OBJECT_TYPE":"PAYLOAD","PERIAPSIS":"546.595","BSTAR":"0.00017868000000","SEMIMAJOR_AXIS":"6925.370","CENTER_NAME":"EARTH","FILE":"3848834","EPOCH":"2023-03-01T20:13:23.218176","TLE_LINE1":"1 48365U 21038N   23060.84262984  .00002381  00000-0  17868-3 0  9991","TLE_LINE2":"2 48365  53.0531 271.9737 0000925  74.1014 286.0077 15.06392947100720","APOAPSIS":"547.876","ECCENTRICITY":"0.00009250","GP_ID":"227317317","PERIOD":"95.593","COUNTRY_CODE":"US","MEAN_ANOMALY":"286.0077","RCS_SIZE":"LARGE","TIME_SYSTEM":"UTC","SITE":"AFETR","ARG_OF_PERICENTER":"74.1014","OBJECT_NAME":"STARLINK-2608","ELEMENT_SET_NO":"999","MEAN_MOTION_DOT":"0.00002381","REV_AT_EPOCH":"10072","CLASSIFICATION_TYPE":"U","OBJECT_ID":"2021-038N","RA_OF_ASC_NODE":"271.9737","REF_FRAME":"TEME","NORAD_CAT_ID":"48365","EPHEMERIS_TYPE":"0","DECAY_DATE":null,"MEAN_MOTION":"15.06392947","MEAN_ELEMENT_THEORY":"SGP4"},{"ARG_OF_PERICENTER":"96.8526","SITE":"AFETR","TIME_SYSTEM":"UTC","MEAN_ANOMALY":"263.2579","RCS_SIZE":"LARGE","COUNTRY_CODE":"US","PERIOD":"95.592","MEAN_ELEMENT_THEORY":"SGP4","MEAN_MOTION":"15.06395175","DECAY_DATE":null,"EPHEMERIS_TYPE":"0","CLASSIFICATION_TYPE":"U","OBJECT_ID":"2021-038P","NORAD_CAT_ID":"48366","RA_OF_ASC_NODE":"267.0356","REF_FRAME":"TEME","REV_AT_EPOCH":"10078","MEAN_MOTION_DOT":"0.00002358","OBJECT_NAME":"STARLINK-2631","ELEMENT_SET_NO":"999","PERIAPSIS":"546.518","BSTAR":"0.00017713000000","LAUNCH_DATE":"2021-05-04","OBJECT_TYPE":"PAYLOAD","MEAN_MOTION_DDOT":"0.0000000000000","INCLINATION":"53.0516","GP_ID":"227318068","TLE_LINE1":"1 48366U 21038P   23060.83019070  .00002358  00000-0  17713-3 0  9990","TLE_LINE2":"2 48366  53.0516 267.0356 0001025  96.8526 263.2579 15.06395175100784","APOAPSIS":"547.938","ECCENTRICITY":"0.00010250","EPOCH":"2023-03-01T19:55:28.476480","CENTER_NAME":"EARTH","FILE":"3848834","SEMIMAJOR_AXIS":"6925.363"},{"PERIOD":"95.593","COUNTRY_CODE":"US","ARG_OF_PERICENTER":"119.8188","SITE":"AFETR","RCS_SIZE":"LARGE","MEAN_ANOMALY":"240.2884","TIME_SYSTEM":"UTC","REV_AT_EPOCH":"10079","NORAD_CAT_ID":"48367","REF_FRAME":"TEME","RA_OF_ASC_NODE":"266.7574","OBJECT_ID":"2021-038Q","CLASSIFICATION_TYPE":"U","ELEMENT_SET_NO":"999","OBJECT_NAME":"STARLINK-2643","MEAN_MOTION_DOT":"0.00012990","MEAN_MOTION":"15.06383745","DECAY_DATE":null,"MEAN_ELEMENT_THEORY":"SGP4","EPHEMERIS_TYPE":"0","MEAN_MOTION_DDOT":"0.0000000000000","INCLINATION":"53.0515","OBJECT_TYPE":"PAYLOAD","LAUNCH_DATE":"2021-05-04","BSTAR":"0.00088970000000","PERIAPSIS":"546.689","FILE":"3848834","CENTER_NAME":"EARTH","EPOCH":"2023-03-01T21:25:42.718656","SEMIMAJOR_AXIS":"6925.398","GP_ID":"227318815","APOAPSIS":"547.838","TLE_LINE2":"2 48367  53.0515 266.7574 0000830 119.8188 240.2884 15.06383745100790","ECCENTRICITY":"0.00008300","TLE_LINE1":"1 48367U 21038Q   23060.89285554  .00012990  00000-0  88970-3 0  9995"},{"PERIOD":"95.592","COUNTRY_CODE":"US","SITE":"AFETR","ARG_OF_PERICENTER":"104.7865","RCS_SIZE":"LARGE","MEAN_ANOMALY":"255.3251","TIME_SYSTEM":"UTC","REV_AT_EPOCH":"10079","RA_OF_ASC_NODE":"267.1365","REF_FRAME":"TEME","NORAD_CAT_ID":"48368","OBJECT_ID":"2021-038R","CLASSIFICATION_TYPE":"U","ELEMENT_SET_NO":"999","OBJECT_NAME":"STARLINK-2623","MEAN_MOTION_DOT":"0.00000538","DECAY_DATE":null,"MEAN_MOTION":"15.06400131","MEAN_ELEMENT_THEORY":"SGP4","EPHEMERIS_TYPE":"0","MEAN_MOTION_DDOT":"0.0000000000000","INCLINATION":"53.0525","OBJECT_TYPE":"PAYLOAD","LAUNCH_DATE":"2021-05-04","BSTAR":"0.00005497100000","PERIAPSIS":"546.417","FILE":"3848834","CENTER_NAME":"EARTH","EPOCH":"2023-03-01T20:53:53.907648","SEMIMAJOR_AXIS":"6925.348","GP_ID":"227317567","TLE_LINE2":"2 48368  53.0525 267.1365 0001149 104.7865 255.3251 15.06400131100798","APOAPSIS":"548.009","ECCENTRICITY":"0.00011490","TLE_LINE1":"1 48368U 21038R   23060.87076282  .00000538  00000-0  54971-4 0  9990"},{"GP_ID":"227317817","APOAPSIS":"548.067","TLE_LINE2":"2 48369  53.0519 266.7742 0001285  72.9299 287.1830 15.06411939100798","ECCENTRICITY":"0.00012850","TLE_LINE1":"1 48369U 21038S   23060.88916262  .00015086  00000-0  10292-2 0  9993","FILE":"3848834","CENTER_NAME":"EARTH","EPOCH":"2023-03-01T21:20:23.650368","SEMIMAJOR_AXIS":"6925.312","OBJECT_TYPE":"PAYLOAD","LAUNCH_DATE":"2021-05-04","BSTAR":"0.00102920000000","PERIAPSIS":"546.287","MEAN_MOTION_DDOT":"0.0000000000000","INCLINATION":"53.0519","MEAN_MOTION":"15.06411939","DECAY_DATE":null,"MEAN_ELEMENT_THEORY":"SGP4","EPHEMERIS_TYPE":"0","REV_AT_EPOCH":"10079","RA_OF_ASC_NODE":"266.7742","REF_FRAME":"TEME","NORAD_CAT_ID":"48369","OBJECT_ID":"2021-038S","CLASSIFICATION_TYPE":"U","ELEMENT_SET_NO":"999","OBJECT_NAME":"STARLINK-2641","MEAN_MOTION_DOT":"0.00015086","ARG_OF_PERICENTER":"72.9299","SITE":"AFETR","RCS_SIZE":"LARGE","MEAN_ANOMALY":"287.1830","TIME_SYSTEM":"UTC","PERIOD":"95.591","COUNTRY_CODE":"US"},{"PERIOD":"95.592","COUNTRY_CODE":"US","RCS_SIZE":"LARGE","MEAN_ANOMALY":"250.6085","TIME_SYSTEM":"UTC","SITE":"AFETR","ARG_OF_PERICENTER":"109.4994","ELEMENT_SET_NO":"999","OBJECT_NAME":"STARLINK-2621","MEAN_MOTION_DOT":"0.00010848","REV_AT_EPOCH":"10079","REF_FRAME":"TEME","NORAD_CAT_ID":"48370","RA_OF_ASC_NODE":"266.7895","OBJECT_ID":"2021-038T","CLASSIFICATION_TYPE":"U","EPHEMERIS_TYPE":"0","DECAY_DATE":null,"MEAN_MOTION":"15.06405526","MEAN_ELEMENT_THEORY":"SGP4","INCLINATION":"53.0517","MEAN_MOTION_DDOT":"0.0000000000000","OBJECT_TYPE":"PAYLOAD","LAUNCH_DATE":"2021-05-04","BSTAR":"0.00074590000000","PERIAPSIS":"546.620","SEMIMAJOR_AXIS":"6925.332","FILE":"3848834","CENTER_NAME":"EARTH","EPOCH":"2023-03-01T21:15:05.187744","ECCENTRICITY":"0.00008330","TLE_LINE2":"2 48370  53.0517 266.7895 0000833 109.4994 250.6085 15.06405526100795","APOAPSIS":"547.774","TLE_LINE1":"1 48370U 21038T   23060.88547671  .00010848  00000-0  74590-3 0  9992","GP_ID":"227318568"},{"MEAN_MOTION_DDOT":"0.0000000000000","INCLINATION":"53.0524","BSTAR":"0.00077808000000","PERIAPSIS":"546.770","OBJECT_TYPE":"PAYLOAD","LAUNCH_DATE":"2021-05-04","EPOCH":"2023-03-01T21:09:46.641312","FILE":"3848834","CENTER_NAME":"EARTH","SEMIMAJOR_AXIS":"6925.344","GP_ID":"227318316","ECCENTRICITY":"0.00006350","TLE_LINE2":"2 48371  53.0524 266.8040 0000635 119.1121 240.9931 15.06401400100796","APOAPSIS":"547.649","TLE_LINE1":"1 48371U 21038U   23060.88178983  .00011327  00000-0  77808-3 0  9997","COUNTRY_CODE":"US","PERIOD":"95.592","SITE":"AFETR","ARG_OF_PERICENTER":"119.1121","TIME_SYSTEM":"UTC","RCS_SIZE":"LARGE","MEAN_ANOMALY":"240.9931","NORAD_CAT_ID":"48371","REF_FRAME":"TEME","RA_OF_ASC_NODE":"266.8040","OBJECT_ID":"2021-038U","CLASSIFICATION_TYPE":"U","REV_AT_EPOCH":"10079","MEAN_MOTION_DOT":"0.00011327","ELEMENT_SET_NO":"999","OBJECT_NAME":"STARLINK-2589","MEAN_ELEMENT_THEORY":"SGP4","MEAN_MOTION":"15.06401400","DECAY_DATE":null,"EPHEMERIS_TYPE":"0"},{"PERIOD":"95.594","COUNTRY_CODE":"US","SITE":"AFETR","ARG_OF_PERICENTER":"62.7991","RCS_SIZE":"LARGE","MEAN_ANOMALY":"297.3148","TIME_SYSTEM":"UTC","REV_AT_EPOCH":"10079","NORAD_CAT_ID":"48372","RA_OF_ASC_NODE":"266.8195","REF_FRAME":"TEME","CLASSIFICATION_TYPE":"U","OBJECT_ID":"2021-038V","ELEMENT_SET_NO":"999","OBJECT_NAME":"STARLINK-2572","MEAN_MOTION_DOT":"0.00014477","DECAY_DATE":null,"MEAN_MOTION":"15.06376593","MEAN_ELEMENT_THEORY":"SGP4","EPHEMERIS_TYPE":"0","MEAN_MOTION_DDOT":"0.0000000000000","INCLINATION":"53.0519","OBJECT_TYPE":"PAYLOAD","LAUNCH_DATE":"2021-05-04","BSTAR":"0.00098939000000","PERIAPSIS":"546.260","FILE":"3848834","CENTER_NAME":"EARTH","EPOCH":"2023-03-01T21:04:29.468640","SEMIMAJOR_AXIS":"6925.420","GP_ID":"227317068","ECCENTRICITY":"0.00014800","TLE_LINE2":"2 48372  53.0519 266.8195 0001480  62.7991 297.3148 15.06376593100799","APOAPSIS":"548.310","TLE_LINE1":"1 48372U 21038V   23060.87811885  .00014477  00000-0  98939-3 0  9999"},{"OBJECT_ID":"2021-038W","CLASSIFICATION_TYPE":"U","RA_OF_ASC_NODE":"266.8309","REF_FRAME":"TEME","NORAD_CAT_ID":"48373","REV_AT_EPOCH":"10079","MEAN_MOTION_DOT":"0.00005463","OBJECT_NAME":"STARLINK-2609","ELEMENT_SET_NO":"999","MEAN_ELEMENT_THEORY":"SGP4","MEAN_MOTION":"15.06391472","DECAY_DATE":null,"EPHEMERIS_TYPE":"0","COUNTRY_CODE":"US","PERIOD":"95.593","SITE":"AFETR","ARG_OF_PERICENTER":"122.5161","TIME_SYSTEM":"UTC","MEAN_ANOMALY":"237.5939","RCS_SIZE":"LARGE","EPOCH":"2023-03-01T20:59:10.760640","CENTER_NAME":"EARTH","FILE":"3848834","SEMIMAJOR_AXIS":"6925.375","GP_ID":"227317318","TLE_LINE1":"1 48373U 21038W   23060.87443010  .00005463  00000-0  38546-3 0  9994","TLE_LINE2":"2 48373  53.0523 266.8309 0001147 122.5161 237.5939 15.06391472100793","APOAPSIS":"548.034","ECCENTRICITY":"0.00011470","MEAN_MOTION_DDOT":"0.0000000000000","INCLINATION":"53.0523","PERIAPSIS":"546.445","BSTAR":"0.00038546000000","LAUNCH_DATE":"2021-05-04","OBJECT_TYPE":"PAYLOAD"},{"COUNTRY_CODE":"US","PERIOD":"95.592","ARG_OF_PERICENTER":"105.2106","SITE":"AFETR","TIME_SYSTEM":"UTC","MEAN_ANOMALY":"254.8993","RCS_SIZE":"LARGE","OBJECT_ID":"2021-038X","CLASSIFICATION_TYPE":"U","REF_FRAME":"TEME","RA_OF_ASC_NODE":"266.8524","NORAD_CAT_ID":"48374","REV_AT_EPOCH":"10079","MEAN_MOTION_DOT":"0.00009113","OBJECT_NAME":"STARLINK-2604","ELEMENT_SET_NO":"999","MEAN_ELEMENT_THEORY":"SGP4","MEAN_MOTION":"15.06404603","DECAY_DATE":null,"EPHEMERIS_TYPE":"0","MEAN_MOTION_DDOT":"0.0000000000000","INCLINATION":"53.0520","PERIAPSIS":"546.506","BSTAR":"0.00062983000000","LAUNCH_DATE":"2021-05-04","OBJECT_TYPE":"PAYLOAD","EPOCH":"2023-03-01T20:52:29.243424","CENTER_NAME":"EARTH","FILE":"3848834","SEMIMAJOR_AXIS":"6925.334","GP_ID":"227318069","TLE_LINE1":"1 48374U 21038X   23060.86978291  .00009113  00000-0  62983-3 0  9996","ECCENTRICITY":"0.00010020","TLE_LINE2":"2 48374  53.0520 266.8524 0001002 105.2106 254.8993 15.06404603100790","APOAPSIS":"547.893"}];
